[{"OBJECT_NAME":"STARLINK-5549","OBJECT_ID":"2023-058AV","EPOCH":"2025-08-10T14:18:49.415328","MEAN_MOTION":15.01258193,"ECCENTRICITY":0.0001733,"INCLINATION":97.6543,"RA_OF_ASC_NODE":223.5079,"ARG_OF_PERICENTER":63.6474,"MEAN_ANOMALY":296.4928,"EPHEMERIS_TYPE":0,"CLASSIFICATION_TYPE":"U","NORAD_CAT_ID":56360,"ELEMENT_SET_NO":999,"REV_AT_EPOCH":12646,"BSTAR":2.8485e-5,"MEAN_MOTION_DOT":3.07e-6,"MEAN_MOTION_DDOT":0},{"OBJECT_NAME":"STARLINK-5550","OBJECT_ID":"2023-058AW","EPOCH":"2025-08-10T12:40:10.711200","MEAN_MOTION":15.01258181,"ECCENTRICITY":0.0001685,"INCLINATION":97.6543,"RA_OF_ASC_NODE":223.4445,"ARG_OF_PERICENTER":61.4777,"MEAN_ANOMALY":298.6617,"EPHEMERIS_TYPE":0,"CLASSIFICATION_TYPE":"U","NORAD_CAT_ID":56361,"ELEMENT_SET_NO":999,"REV_AT_EPOCH":12645,"BSTAR":1.9446e-5,"MEAN_MOTION_DOT":1.91e-6,"MEAN_MOTION_DDOT":0},{"OBJECT_NAME":"STARLINK-5972","OBJECT_ID":"2023-058AX","EPOCH":"2025-08-10T14:13:29.377632","MEAN_MOTION":15.01260989,"ECCENTRICITY":0.0001131,"INCLINATION":97.6544,"RA_OF_ASC_NODE":223.512,"ARG_OF_PERICENTER":127.1733,"MEAN_ANOMALY":232.9595,"EPHEMERIS_TYPE":0,"CLASSIFICATION_TYPE":"U","NORAD_CAT_ID":56362,"ELEMENT_SET_NO":999,"REV_AT_EPOCH":12646,"BSTAR":5.0882e-6,"MEAN_MOTION_DOT":6.0e-8,"MEAN_MOTION_DDOT":0},{"OBJECT_NAME":"STARLINK-6156","OBJECT_ID":"2023-061A","EPOCH":"2025-08-10T13:34:33.350592","MEAN_MOTION":15.02527116,"ECCENTRICITY":0.0001209,"INCLINATION":43.0031,"RA_OF_ASC_NODE":264.8734,"ARG_OF_PERICENTER":268.1452,"MEAN_ANOMALY":91.9252,"EPHEMERIS_TYPE":0,"CLASSIFICATION_TYPE":"U","NORAD_CAT_ID":56374,"ELEMENT_SET_NO":999,"REV_AT_EPOCH":12609,"BSTAR":-7.1681e-5,"MEAN_MOTION_DOT":-1.171e-5,"MEAN_MOTION_DDOT":0},{"OBJECT_NAME":"STARLINK-6158","OBJECT_ID":"2023-061B","EPOCH":"2025-08-10T13:26:32.165664","MEAN_MOTION":15.02511433,"ECCENTRICITY":0.0001698,"INCLINATION":43.0066,"RA_OF_ASC_NODE":264.8303,"ARG_OF_PERICENTER":287.4434,"MEAN_ANOMALY":72.6223,"EPHEMERIS_TYPE":0,"CLASSIFICATION_TYPE":"U","NORAD_CAT_ID":56375,"ELEMENT_SET_NO":999,"REV_AT_EPOCH":12499,"BSTAR":0.00056263,"MEAN_MOTION_DOT":7.4e-5,"MEAN_MOTION_DDOT":0},{"OBJECT_NAME":"STARLINK-6188","OBJECT_ID":"2023-061C","EPOCH":"2025-08-10T11:20:27.222720","MEAN_MOTION":15.02537058,"ECCENTRICITY":0.0001317,"INCLINATION":43.0031,"RA_OF_ASC_NODE":265.0306,"ARG_OF_PERICENTER":272.5203,"MEAN_ANOMALY":87.5489,"EPHEMERIS_TYPE":0,"CLASSIFICATION_TYPE":"U","NORAD_CAT_ID":56376,"ELEMENT_SET_NO":999,"REV_AT_EPOCH":12498,"BSTAR":3.8693e-5,"MEAN_MOTION_DOT":3.19e-6,"MEAN_MOTION_DDOT":0},{"OBJECT_NAME":"STARLINK-6189","OBJECT_ID":"2023-061D","EPOCH":"2025-08-10T10:10:17.848416","MEAN_MOTION":15.02537289,"ECCENTRICITY":0.0001178,"INCLINATION":43.0027,"RA_OF_ASC_NODE":265.5268,"ARG_OF_PERICENTER":272.6996,"MEAN_ANOMALY":87.3712,"EPHEMERIS_TYPE":0,"CLASSIFICATION_TYPE":"U","NORAD_CAT_ID":56377,"ELEMENT_SET_NO":999,"REV_AT_EPOCH":12497,"BSTAR":4.6327e-5,"MEAN_MOTION_DOT":4.22e-6,"MEAN_MOTION_DDOT":0},{"OBJECT_NAME":"STARLINK-6191","OBJECT_ID":"2023-061E","EPOCH":"2025-08-10T13:28:08.883552","MEAN_MOTION":15.02535709,"ECCENTRICITY":0.0001193,"INCLINATION":43.0032,"RA_OF_ASC_NODE":264.8302,"ARG_OF_PERICENTER":273.9863,"MEAN_ANOMALY":86.0843,"EPHEMERIS_TYPE":0,"CLASSIFICATION_TYPE":"U","NORAD_CAT_ID":56378,"ELEMENT_SET_NO":999,"REV_AT_EPOCH":12499,"BSTAR":5.1703e-5,"MEAN_MOTION_DOT":4.95e-6,"MEAN_MOTION_DDOT":0},{"OBJECT_NAME":"STARLINK-6157","OBJECT_ID":"2023-061F","EPOCH":"2025-08-10T09:54:19.402848","MEAN_MOTION":15.02533615,"ECCENTRICITY":0.0001369,"INCLINATION":43.0031,"RA_OF_ASC_NODE":265.4436,"ARG_OF_PERICENTER":278.6988,"MEAN_ANOMALY":81.37,"EPHEMERIS_TYPE":0,"CLASSIFICATION_TYPE":"U","NORAD_CAT_ID":56379,"ELEMENT_SET_NO":999,"REV_AT_EPOCH":12607,"BSTAR":-1.6434e-5,"MEAN_MOTION_DOT":-4.26e-6,"MEAN_MOTION_DDOT":0},{"OBJECT_NAME":"STARLINK-6159","OBJECT_ID":"2023-061H","EPOCH":"2025-08-10T10:03:54.278208","MEAN_MOTION":15.02540711,"ECCENTRICITY":0.0001368,"INCLINATION":43.0033,"RA_OF_ASC_NODE":265.4931,"ARG_OF_PERICENTER":273.5932,"MEAN_ANOMALY":86.4754,"EPHEMERIS_TYPE":0,"CLASSIFICATION_TYPE":"U","NORAD_CAT_ID":56381,"ELEMENT_SET_NO":999,"REV_AT_EPOCH":12526,"BSTAR":8.9128e-5,"MEAN_MOTION_DOT":1.001e-5,"MEAN_MOTION_DDOT":0},{"OBJECT_NAME":"STARLINK-6160","OBJECT_ID":"2023-061J","EPOCH":"2025-08-10T11:22:03.258912","MEAN_MOTION":15.02531966,"ECCENTRICITY":0.0001154,"INCLINATION":43.0026,"RA_OF_ASC_NODE":265.0348,"ARG_OF_PERICENTER":271.5376,"MEAN_ANOMALY":88.5334,"EPHEMERIS_TYPE":0,"CLASSIFICATION_TYPE":"U","NORAD_CAT_ID":56382,"ELEMENT_SET_NO":999,"REV_AT_EPOCH":12498,"BSTAR":-1.4716e-5,"MEAN_MOTION_DOT":-4.02e-6,"MEAN_MOTION_DDOT":0},{"OBJECT_NAME":"STARLINK-6166","OBJECT_ID":"2023-061K","EPOCH":"2025-08-10T09:49:31.827360","MEAN_MOTION":15.02530721,"ECCENTRICITY":0.0001487,"INCLINATION":43.0037,"RA_OF_ASC_NODE":265.4139,"ARG_OF_PERICENTER":270.5972,"MEAN_ANOMALY":89.47,"EPHEMERIS_TYPE":0,"CLASSIFICATION_TYPE":"U","NORAD_CAT_ID":56383,"ELEMENT_SET_NO":999,"REV_AT_EPOCH":12497,"BSTAR":-5.0405e-5,"MEAN_MOTION_DOT":-8.84e-6,"MEAN_MOTION_DDOT":0},{"OBJECT_NAME":"STARLINK-6153","OBJECT_ID":"2023-061L","EPOCH":"2025-08-10T09:35:08.623968","MEAN_MOTION":15.0254773,"ECCENTRICITY":0.0001844,"INCLINATION":43.0036,"RA_OF_ASC_NODE":265.3387,"ARG_OF_PERICENTER":261.9347,"MEAN_ANOMALY":98.1286,"EPHEMERIS_TYPE":0,"CLASSIFICATION_TYPE":"U","NORAD_CAT_ID":56384,"ELEMENT_SET_NO":999,"REV_AT_EPOCH":12497,"BSTAR":-0.00026935,"MEAN_MOTION_DOT":-3.841e-5,"MEAN_MOTION_DDOT":0},{"OBJECT_NAME":"STARLINK-6173","OBJECT_ID":"2023-061M","EPOCH":"2025-08-10T09:39:55.682784","MEAN_MOTION":15.02539336,"ECCENTRICITY":0.0001308,"INCLINATION":43.003,"RA_OF_ASC_NODE":265.3668,"ARG_OF_PERICENTER":274.9702,"MEAN_ANOMALY":85.0992,"EPHEMERIS_TYPE":0,"CLASSIFICATION_TYPE":"U","NORAD_CAT_ID":56385,"ELEMENT_SET_NO":999,"REV_AT_EPOCH":12497,"BSTAR":9.8865e-5,"MEAN_MOTION_DOT":1.132e-5,"MEAN_MOTION_DDOT":0},{"OBJECT_NAME":"STARLINK-5836","OBJECT_ID":"2023-061N","EPOCH":"2025-08-10T09:25:33.003840","MEAN_MOTION":15.02534122,"ECCENTRICITY":0.0001145,"INCLINATION":43.0028,"RA_OF_ASC_NODE":265.2859,"ARG_OF_PERICENTER":266.4035,"MEAN_ANOMALY":93.6677,"EPHEMERIS_TYPE":0,"CLASSIFICATION_TYPE":"U","NORAD_CAT_ID":56386,"ELEMENT_SET_NO":999,"REV_AT_EPOCH":12497,"BSTAR":1.0426e-5,"MEAN_MOTION_DOT":-6.3e-7,"MEAN_MOTION_DDOT":0},{"OBJECT_NAME":"STARLINK-6178","OBJECT_ID":"2023-061P","EPOCH":"2025-08-10T10:46:54.418080","MEAN_MOTION":15.02530765,"ECCENTRICITY":0.000153,"INCLINATION":43.0031,"RA_OF_ASC_NODE":264.8543,"ARG_OF_PERICENTER":279.9575,"MEAN_ANOMALY":80.1095,"EPHEMERIS_TYPE":0,"CLASSIFICATION_TYPE":"U","NORAD_CAT_ID":56387,"ELEMENT_SET_NO":999,"REV_AT_EPOCH":12498,"BSTAR":0.00027907,"MEAN_MOTION_DOT":3.568e-5,"MEAN_MOTION_DDOT":0},{"OBJECT_NAME":"STARLINK-6176","OBJECT_ID":"2023-061Q","EPOCH":"2025-08-10T10:08:42.111168","MEAN_MOTION":15.02537895,"ECCENTRICITY":0.0001176,"INCLINATION":43.0033,"RA_OF_ASC_NODE":265.5027,"ARG_OF_PERICENTER":271.8068,"MEAN_ANOMALY":88.2639,"EPHEMERIS_TYPE":0,"CLASSIFICATION_TYPE":"U","NORAD_CAT_ID":56388,"ELEMENT_SET_NO":999,"REV_AT_EPOCH":12497,"BSTAR":2.0362e-5,"MEAN_MOTION_DOT":7.1e-7,"MEAN_MOTION_DDOT":0},{"OBJECT_NAME":"STARLINK-6145","OBJECT_ID":"2023-061R","EPOCH":"2025-08-10T11:06:04.628448","MEAN_MOTION":15.02531547,"ECCENTRICITY":0.0001583,"INCLINATION":43.0037,"RA_OF_ASC_NODE":264.9521,"ARG_OF_PERICENTER":283.2816,"MEAN_ANOMALY":76.785,"EPHEMERIS_TYPE":0,"CLASSIFICATION_TYPE":"U","NORAD_CAT_ID":56389,"ELEMENT_SET_NO":999,"REV_AT_EPOCH":12498,"BSTAR":-4.483e-5,"MEAN_MOTION_DOT":-8.09e-6,"MEAN_MOTION_DDOT":0},{"OBJECT_NAME":"STARLINK-6298","OBJECT_ID":"2023-061T","EPOCH":"2025-08-10T10:56:29.883552","MEAN_MOTION":15.02533111,"ECCENTRICITY":0.000114,"INCLINATION":43.0033,"RA_OF_ASC_NODE":264.896,"ARG_OF_PERICENTER":271.9292,"MEAN_ANOMALY":88.142,"EPHEMERIS_TYPE":0,"CLASSIFICATION_TYPE":"U","NORAD_CAT_ID":56391,"ELEMENT_SET_NO":999,"REV_AT_EPOCH":12498,"BSTAR":5.9453e-5,"MEAN_MOTION_DOT":6.0e-6,"MEAN_MOTION_DDOT":0},{"OBJECT_NAME":"STARLINK-6301","OBJECT_ID":"2023-061U","EPOCH":"2025-08-10T09:24:29.320128","MEAN_MOTION":15.02538189,"ECCENTRICITY":0.0001278,"INCLINATION":43.0029,"RA_OF_ASC_NODE":253.1496,"ARG_OF_PERICENTER":275.7679,"MEAN_ANOMALY":84.3017,"EPHEMERIS_TYPE":0,"CLASSIFICATION_TYPE":"U","NORAD_CAT_ID":56392,"ELEMENT_SET_NO":999,"REV_AT_EPOCH":12511,"BSTAR":9.0882e-5,"MEAN_MOTION_DOT":1.024e-5,"MEAN_MOTION_DDOT":0},{"OBJECT_NAME":"STARLINK-6303","OBJECT_ID":"2023-061V","EPOCH":"2025-08-10T09:15:57.723264","MEAN_MOTION":15.02534609,"ECCENTRICITY":0.0001303,"INCLINATION":43.003,"RA_OF_ASC_NODE":265.2399,"ARG_OF_PERICENTER":272.2951,"MEAN_ANOMALY":87.7742,"EPHEMERIS_TYPE":0,"CLASSIFICATION_TYPE":"U","NORAD_CAT_ID":56393,"ELEMENT_SET_NO":999,"REV_AT_EPOCH":12497,"BSTAR":1.829e-5,"MEAN_MOTION_DOT":4.3e-7,"MEAN_MOTION_DDOT":0},{"OBJECT_NAME":"STARLINK-6305","OBJECT_ID":"2023-061W","EPOCH":"2025-08-10T10:44:14.733600","MEAN_MOTION":15.02528893,"ECCENTRICITY":0.0001306,"INCLINATION":43.0024,"RA_OF_ASC_NODE":252.709,"ARG_OF_PERICENTER":271.5536,"MEAN_ANOMALY":88.5156,"EPHEMERIS_TYPE":0,"CLASSIFICATION_TYPE":"U","NORAD_CAT_ID":56394,"ELEMENT_SET_NO":999,"REV_AT_EPOCH":12512,"BSTAR":-4.2959e-5,"MEAN_MOTION_DOT":-7.84e-6,"MEAN_MOTION_DDOT":0},{"OBJECT_NAME":"STARLINK-6273","OBJECT_ID":"2023-061X","EPOCH":"2025-08-10T09:13:19.931808","MEAN_MOTION":15.025283,"ECCENTRICITY":0.0001429,"INCLINATION":43.0027,"RA_OF_ASC_NODE":253.0907,"ARG_OF_PERICENTER":264.5421,"MEAN_ANOMALY":95.5258,"EPHEMERIS_TYPE":0,"CLASSIFICATION_TYPE":"U","NORAD_CAT_ID":56395,"ELEMENT_SET_NO":999,"REV_AT_EPOCH":12582,"BSTAR":0.00016832,"MEAN_MOTION_DOT":2.07e-5,"MEAN_MOTION_DDOT":0}]
